{
  "type": "FeatureCollection",
  "features": [
    {
      "type": "Feature",
      "properties": {
        "norad_id": 57400,
        "name": "TIANMU-1 08",
        "group": "weather",
        "lat": 35.398924145696476,
        "lon": 30.68273455859204,
        "alt_km": 475.9912564287415,
        "timestamp": "2025-12-12T05:47:28.414963+00:00",
        "meta_object_name": "TIANMU-1 08",
        "meta_object_id": "2023-101B",
        "meta_epoch": "2025-12-12T00:55:13.780416",
        "meta_mean_motion": 15.28038804,
        "meta_eccentricity": 0.00075212,
        "meta_inclination": 97.2868,
        "meta_ra_of_asc_node": 35.7015,
        "meta_arg_of_pericenter": 85.8571,
        "meta_mean_anomaly": 274.3528,
        "meta_ephemeris_type": 0,
        "meta_classification_type": "U",
        "meta_norad_cat_id": 57400,
        "meta_element_set_no": 999,
        "meta_rev_at_epoch": 13304,
        "meta_bstar": 0.0004126256,
        "meta_mean_motion_dot": 0.00011226,
        "meta_mean_motion_ddot": 0,
        "tle_line1": "1 57400U 23101B   25346.03835394  .00011226  00000+0  41263-3 0  9998",
        "tle_line2": "2 57400  97.2868  35.7015 0007521  85.8571 274.3528 15.28038804133049"
      },
      "geometry": {
        "type": "Point",
        "coordinates": [
          30.68273455859204,
          35.398924145696476
        ]
      }
    },
    {
      "type": "Feature",
      "properties": {
        "norad_id": 57401,
        "name": "TIANMU-1 09",
        "group": "weather",
        "lat": 70.12010213027824,
        "lon": -123.87509835061988,
        "alt_km": 470.53823558899603,
        "timestamp": "2025-12-12T05:47:28.414977+00:00",
        "meta_object_name": "TIANMU-1 09",
        "meta_object_id": "2023-101C",
        "meta_epoch": "2025-12-12T00:36:13.158720",
        "meta_mean_motion": 15.28067758,
        "meta_eccentricity": 0.000678,
        "meta_inclination": 97.2825,
        "meta_ra_of_asc_node": 35.2024,
        "meta_arg_of_pericenter": 85.8842,
        "meta_mean_anomaly": 274.3173,
        "meta_ephemeris_type": 0,
        "meta_classification_type": "U",
        "meta_norad_cat_id": 57401,
        "meta_element_set_no": 999,
        "meta_rev_at_epoch": 13304,
        "meta_bstar": 0.00043768335,
        "meta_mean_motion_dot": 0.00011922,
        "meta_mean_motion_ddot": 0,
        "tle_line1": "1 57401U 23101C   25346.02515230  .00011922  00000+0  43768-3 0  9997",
        "tle_line2": "2 57401  97.2825  35.2024 0006780  85.8842 274.3173 15.28067758133041"
      },
      "geometry": {
        "type": "Point",
        "coordinates": [
          -123.87509835061988,
          70.12010213027824
        ]
      }
    },
    {
      "type": "Feature",
      "properties": {
        "norad_id": 57402,
        "name": "TIANMU-1 10",
        "group": "weather",
        "lat": -77.3413146453154,
        "lon": 71.01398919200606,
        "alt_km": 494.6206332700176,
        "timestamp": "2025-12-12T05:47:28.414987+00:00",
        "meta_object_name": "TIANMU-1 10",
        "meta_object_id": "2023-101D",
        "meta_epoch": "2025-12-11T23:51:11.036736",
        "meta_mean_motion": 15.28057963,
        "meta_eccentricity": 0.0008571,
        "meta_inclination": 97.2906,
        "meta_ra_of_asc_node": 36.0208,
        "meta_arg_of_pericenter": 85.6256,
        "meta_mean_anomaly": 274.5963,
        "meta_ephemeris_type": 0,
        "meta_classification_type": "U",
        "meta_norad_cat_id": 57402,
        "meta_element_set_no": 999,
        "meta_rev_at_epoch": 13303,
        "meta_bstar": 0.00040297726,
        "meta_mean_motion_dot": 0.00010971,
        "meta_mean_motion_ddot": 0,
        "tle_line1": "1 57402U 23101D   25345.99387774  .00010971  00000+0  40298-3 0  9991",
        "tle_line2": "2 57402  97.2906  36.0208 0008571  85.6256 274.5963 15.28057963133037"
      },
      "geometry": {
        "type": "Point",
        "coordinates": [
          71.01398919200606,
          -77.3413146453154
        ]
      }
    },
    {
      "type": "Feature",
      "properties": {
        "norad_id": 57490,
        "name": "FENGYUN 3F",
        "group": "weather",
        "lat": 13.594879731633144,
        "lon": 52.41854181282086,
        "alt_km": 826.6662593374376,
        "timestamp": "2025-12-12T05:47:28.414998+00:00",
        "meta_object_name": "FENGYUN 3F",
        "meta_object_id": "2023-111A",
        "meta_epoch": "2025-12-12T00:39:10.677024",
        "meta_mean_motion": 14.19893294,
        "meta_eccentricity": 6.696e-05,
        "meta_inclination": 98.7084,
        "meta_ra_of_asc_node": 54.3321,
        "meta_arg_of_pericenter": 100.391,
        "meta_mean_anomaly": 259.7342,
        "meta_ephemeris_type": 0,
        "meta_classification_type": "U",
        "meta_norad_cat_id": 57490,
        "meta_element_set_no": 999,
        "meta_rev_at_epoch": 12230,
        "meta_bstar": 8.4790767e-05,
        "meta_mean_motion_dot": 1.36e-06,
        "meta_mean_motion_ddot": 0,
        "tle_line1": "1 57490U 23111A   25346.02720691  .00000136  00000+0  84791-4 0  9992",
        "tle_line2": "2 57490  98.7084  54.3321 0000669 100.3910 259.7342 14.19893294122306"
      },
      "geometry": {
        "type": "Point",
        "coordinates": [
          52.41854181282086,
          13.594879731633144
        ]
      }
    },
    {
      "type": "Feature",
      "properties": {
        "norad_id": 58584,
        "name": "ARKTIKA-M 2",
        "group": "weather",
        "lat": 35.73321679811499,
        "lon": -26.366978953816,
        "alt_km": 18341.683380419843,
        "timestamp": "2025-12-12T05:47:28.415037+00:00",
        "meta_object_name": "ARKTIKA-M 2",
        "meta_object_id": "2023-198A",
        "meta_epoch": "2025-12-08T20:10:13.977120",
        "meta_mean_motion": 2.0060476,
        "meta_eccentricity": 0.68646991,
        "meta_inclination": 63.2247,
        "meta_ra_of_asc_node": 175.3152,
        "meta_arg_of_pericenter": 268.1185,
        "meta_mean_anomaly": 18.8267,
        "meta_ephemeris_type": 0,
        "meta_classification_type": "U",
        "meta_norad_cat_id": 58584,
        "meta_element_set_no": 999,
        "meta_rev_at_epoch": 1450,
        "meta_bstar": 0,
        "meta_mean_motion_dot": 1.66e-06,
        "meta_mean_motion_ddot": 0,
        "tle_line1": "1 58584U 23198A   25342.84043955  .00000166  00000+0  00000+0 0  9998",
        "tle_line2": "2 58584  63.2247 175.3152 6864699 268.1185  18.8267  2.00604760 14506"
      },
      "geometry": {
        "type": "Point",
        "coordinates": [
          -26.366978953816,
          35.73321679811499
        ]
      }
    },
    {
      "type": "Feature",
      "properties": {
        "norad_id": 58645,
        "name": "TIANMU-1 11",
        "group": "weather",
        "lat": 72.56968297595921,
        "lon": -149.8110681234872,
        "alt_km": 489.95090815267304,
        "timestamp": "2025-12-12T05:47:28.415051+00:00",
        "meta_object_name": "TIANMU-1 11",
        "meta_object_id": "2023-205A",
        "meta_epoch": "2025-12-12T00:36:10.983168",
        "meta_mean_motion": 15.24585606,
        "meta_eccentricity": 0.00079719,
        "meta_inclination": 97.3611,
        "meta_ra_of_asc_node": 5.661,
        "meta_arg_of_pericenter": 313.4288,
        "meta_mean_anomaly": 46.6286,
        "meta_ephemeris_type": 0,
        "meta_classification_type": "U",
        "meta_norad_cat_id": 58645,
        "meta_element_set_no": 999,
        "meta_rev_at_epoch": 10898,
        "meta_bstar": 0.00038177485,
        "meta_mean_motion_dot": 9.35e-05,
        "meta_mean_motion_ddot": 0,
        "tle_line1": "1 58645U 23205A   25346.02512712  .00009350  00000+0  38177-3 0  9995",
        "tle_line2": "2 58645  97.3611   5.6610 0007971 313.4288  46.6286 15.24585606108988"
      },
      "geometry": {
        "type": "Point",
        "coordinates": [
          -149.8110681234872,
          72.56968297595921
        ]
      }
    },
    {
      "type": "Feature",
      "properties": {
        "norad_id": 58646,
        "name": "TIANMU-1 12",
        "group": "weather",
        "lat": -41.455410371259845,
        "lon": 12.235168952154693,
        "alt_km": 495.3554933323403,
        "timestamp": "2025-12-12T05:47:28.415062+00:00",
        "meta_object_name": "TIANMU-1 12",
        "meta_object_id": "2023-205B",
        "meta_epoch": "2025-12-12T01:14:54.452832",
        "meta_mean_motion": 15.24469229,
        "meta_eccentricity": 0.00058578,
        "meta_inclination": 97.36,
        "meta_ra_of_asc_node": 5.493,
        "meta_arg_of_pericenter": 294.3888,
        "meta_mean_anomaly": 65.6738,
        "meta_ephemeris_type": 0,
        "meta_classification_type": "U",
        "meta_norad_cat_id": 58646,
        "meta_element_set_no": 999,
        "meta_rev_at_epoch": 10897,
        "meta_bstar": 0.00038195883,
        "meta_mean_motion_dot": 9.318e-05,
        "meta_mean_motion_ddot": 0,
        "tle_line1": "1 58646U 23205B   25346.05201913  .00009318  00000+0  38196-3 0  9992",
        "tle_line2": "2 58646  97.3600   5.4930 0005857 294.3888  65.6738 15.24469229108978"
      },
      "geometry": {
        "type": "Point",
        "coordinates": [
          12.235168952154693,
          -41.455410371259845
        ]
      }
    }
  ]
}